[
    {
        "Altitude(m)": 559659.1605641216,
        "Argument of Periapsis(deg)": 0.026491964442854003,
        "Eccentricity": 0.0,
        "Inclination(deg)": 53.0,
        "Latitude(deg)": 52.09650012233877,
        "Longitude(deg)": -68.91019915289574,
        "Mean Anomaly(deg)": -279.63352852968967,
        "RAAN(deg)": 319.96057347411204,
        "Satellite Name": "Starlink Shell 1 1410",
        "Satellite Number": 1410,
        "Semi-Major Axis(m)": 6931778.249405717,
        "Time(s)": 760
    },
    {
        "Altitude(m)": 559689.2253681624,
        "Argument of Periapsis(deg)": 0.02684054292236524,
        "Eccentricity": 0.0,
        "Inclination(deg)": 53.0,
        "Latitude(deg)": 52.22803526715802,
        "Longitude(deg)": -67.95508232478475,
        "Mean Anomaly(deg)": -279.00669732613295,
        "RAAN(deg)": 319.9600547040346,
        "Satellite Name": "Starlink Shell 1 1410",
        "Satellite Number": 1410,
        "Semi-Major Axis(m)": 6931778.249405717,
        "Time(s)": 770
    },
    {
        "Altitude(m)": 559717.3474086646,
        "Argument of Periapsis(deg)": 0.027189121401876473,
        "Eccentricity": 0.0,
        "Inclination(deg)": 53.0,
        "Latitude(deg)": 52.35111184032929,
        "Longitude(deg)": -66.99425432178812,
        "Mean Anomaly(deg)": -278.37986612257623,
        "RAAN(deg)": 319.9595359339571,
        "Satellite Name": "Starlink Shell 1 1410",
        "Satellite Number": 1410,
        "Semi-Major Axis(m)": 6931778.249405717,
        "Time(s)": 780
    },
    {
        "Altitude(m)": 559743.5097948672,
        "Argument of Periapsis(deg)": 0.02753769988138771,
        "Eccentricity": 0.0,
        "Inclination(deg)": 53.0,
        "Latitude(deg)": 52.46564573327208,
        "Longitude(deg)": -66.02804265033265,
        "Mean Anomaly(deg)": -277.75303491901946,
        "RAAN(deg)": 319.95901716387965,
        "Satellite Name": "Starlink Shell 1 1410",
        "Satellite Number": 1410,
        "Semi-Major Axis(m)": 6931778.249405717,
        "Time(s)": 790
    },
    {
        "Altitude(m)": 559767.6968236079,
        "Argument of Periapsis(deg)": 0.02788627836089895,
        "Eccentricity": 0.0,
        "Inclination(deg)": 53.0,
        "Latitude(deg)": 52.57155768942444,
        "Longitude(deg)": -65.05678958333085,
        "Mean Anomaly(deg)": -277.1262037154628,
        "RAAN(deg)": 319.95849839380213,
        "Satellite Name": "Starlink Shell 1 1410",
        "Satellite Number": 1410,
        "Semi-Major Axis(m)": 6931778.249405717,
        "Time(s)": 800
    },
    {
        "Altitude(m)": 559789.8939870042,
        "Argument of Periapsis(deg)": 0.02823485684041019,
        "Eccentricity": 0.0,
        "Inclination(deg)": 53.0,
        "Latitude(deg)": 52.66877355974984,
        "Longitude(deg)": -64.08085099968143,
        "Mean Anomaly(deg)": -276.4993725119061,
        "RAAN(deg)": 319.9579796237247,
        "Satellite Name": "Starlink Shell 1 1410",
        "Satellite Number": 1410,
        "Semi-Major Axis(m)": 6931778.249405717,
        "Time(s)": 810
    },
    {
        "Altitude(m)": 559810.0879795107,
        "Argument of Periapsis(deg)": 0.028583435319921423,
        "Eccentricity": 0.0,
        "Inclination(deg)": 53.0,
        "Latitude(deg)": 52.75722454664758,
        "Longitude(deg)": -63.100595138980196,
        "Mean Anomaly(deg)": -275.8725413083494,
        "RAAN(deg)": 319.9574608536472,
        "Satellite Name": "Starlink Shell 1 1410",
        "Satellite Number": 1410,
        "Semi-Major Axis(m)": 6931778.249405717,
        "Time(s)": 820
    },
    {
        "Altitude(m)": 559828.2667044221,
        "Argument of Periapsis(deg)": 0.028932013799432665,
        "Eccentricity": 0.0,
        "Inclination(deg)": 53.0,
        "Latitude(deg)": 52.836847434557704,
        "Longitude(deg)": -62.11640278613555,
        "Mean Anomaly(deg)": -275.24571010479264,
        "RAAN(deg)": 319.95694208356974,
        "Satellite Name": "Starlink Shell 1 1410",
        "Satellite Number": 1410,
        "Semi-Major Axis(m)": 6931778.249405717,
        "Time(s)": 830
    },
    {
        "Altitude(m)": 559844.419279744,
        "Argument of Periapsis(deg)": 0.029280592278943897,
        "Eccentricity": 0.0,
        "Inclination(deg)": 53.0,
        "Latitude(deg)": 52.90758480551047,
        "Longitude(deg)": -61.128665863659116,
        "Mean Anomaly(deg)": -274.61887890123586,
        "RAAN(deg)": 319.9564233134923,
        "Satellite Name": "Starlink Shell 1 1410",
        "Satellite Number": 1410,
        "Semi-Major Axis(m)": 6931778.249405717,
        "Time(s)": 840
    },
    {
        "Altitude(m)": 559858.5360435015,
        "Argument of Periapsis(deg)": 0.029629170758455132,
        "Eccentricity": 0.0,
        "Inclination(deg)": 53.0,
        "Latitude(deg)": 52.96938523795403,
        "Longitude(deg)": -60.13778594883754,
        "Mean Anomaly(deg)": -273.9920476976792,
        "RAAN(deg)": 319.9559045434148,
        "Satellite Name": "Starlink Shell 1 1410",
        "Satellite Number": 1410,
        "Semi-Major Axis(m)": 6931778.249405717,
        "Time(s)": 850
    },
    {
        "Altitude(m)": 559870.6085584604,
        "Argument of Periapsis(deg)": 0.02997774923796637,
        "Eccentricity": 0.0,
        "Inclination(deg)": 53.0,
        "Latitude(deg)": 53.0222034872882,
        "Longitude(deg)": -59.14417440200612,
        "Mean Anomaly(deg)": -273.3652164941225,
        "RAAN(deg)": 319.9553857733373,
        "Satellite Name": "Starlink Shell 1 1410",
        "Satellite Number": 1410,
        "Semi-Major Axis(m)": 6931778.249405717,
        "Time(s)": 860
    },
    {
        "Altitude(m)": 559880.6296162023,
        "Argument of Periapsis(deg)": 0.030326327717477602,
        "Eccentricity": 0.0,
        "Inclination(deg)": 53.0,
        "Latitude(deg)": 53.06600064665111,
        "Longitude(deg)": -58.148249909633414,
        "Mean Anomaly(deg)": -272.7383852905658,
        "RAAN(deg)": 319.9548670032599,
        "Satellite Name": "Starlink Shell 1 1410",
        "Satellite Number": 1410,
        "Semi-Major Axis(m)": 6931778.249405717,
        "Time(s)": 870
    },
    {
        "Altitude(m)": 559888.5932406599,
        "Argument of Periapsis(deg)": 0.030674906196988847,
        "Eccentricity": 0.0,
        "Inclination(deg)": 53.0,
        "Latitude(deg)": 53.100744286637266,
        "Longitude(deg)": -57.15043849206002,
        "Mean Anomaly(deg)": -272.11155408700904,
        "RAAN(deg)": 319.9543482331824,
        "Satellite Name": "Starlink Shell 1 1410",
        "Satellite Number": 1410,
        "Semi-Major Axis(m)": 6931778.249405717,
        "Time(s)": 880
    },
    {
        "Altitude(m)": 559894.4946910024,
        "Argument of Periapsis(deg)": 0.031023484676500086,
        "Eccentricity": 0.0,
        "Inclination(deg)": 53.0,
        "Latitude(deg)": 53.12640857278654,
        "Longitude(deg)": -56.151171781157174,
        "Mean Anomaly(deg)": -271.4847228834523,
        "RAAN(deg)": 319.95382946310485,
        "Satellite Name": "Starlink Shell 1 1410",
        "Satellite Number": 1410,
        "Semi-Major Axis(m)": 6931778.249405717,
        "Time(s)": 890
    },
    {
        "Altitude(m)": 559898.3304639645,
        "Argument of Periapsis(deg)": 0.03137206315601132,
        "Eccentricity": 0.0,
        "Inclination(deg)": 53.0,
        "Latitude(deg)": 53.14297435985258,
        "Longitude(deg)": -55.15088525721002,
        "Mean Anomaly(deg)": -270.85789167989566,
        "RAAN(deg)": 319.95331069302745,
        "Satellite Name": "Starlink Shell 1 1410",
        "Satellite Number": 1410,
        "Semi-Major Axis(m)": 6931778.249405717,
        "Time(s)": 900
    },
    {
        "Altitude(m)": 559900.0982955234,
        "Argument of Periapsis(deg)": 0.03172064163552255,
        "Eccentricity": 0.0,
        "Inclination(deg)": 53.0,
        "Latitude(deg)": 53.15042926204715,
        "Longitude(deg)": -54.15001796678206,
        "Mean Anomaly(deg)": -270.2310604763389,
        "RAAN(deg)": 319.95279192295,
        "Satellite Name": "Starlink Shell 1 1410",
        "Satellite Number": 1410,
        "Semi-Major Axis(m)": 6931778.249405717,
        "Time(s)": 910
    },
    {
        "Altitude(m)": 559899.7971620183,
        "Argument of Periapsis(deg)": 0.0320692201150338,
        "Eccentricity": 0.0,
        "Inclination(deg)": 53.0,
        "Latitude(deg)": 53.14876769865971,
        "Longitude(deg)": -53.14901070513809,
        "Mean Anomaly(deg)": -269.6042292727822,
        "RAAN(deg)": 319.95227315287246,
        "Satellite Name": "Starlink Shell 1 1410",
        "Satellite Number": 1410,
        "Semi-Major Axis(m)": 6931778.249405717,
        "Time(s)": 920
    },
    {
        "Altitude(m)": 559897.4272806229,
        "Argument of Periapsis(deg)": 0.032417798594545036,
        "Eccentricity": 0.0,
        "Inclination(deg)": 53.0,
        "Latitude(deg)": 53.13799091465829,
        "Longitude(deg)": -52.14830418572831,
        "Mean Anomaly(deg)": -268.9773980692255,
        "RAAN(deg)": 319.95175438279506,
        "Satellite Name": "Starlink Shell 1 1410",
        "Satellite Number": 1410,
        "Semi-Major Axis(m)": 6931778.249405717,
        "Time(s)": 930
    },
    {
        "Altitude(m)": 559892.9901092616,
        "Argument of Periapsis(deg)": 0.03276637707405627,
        "Eccentricity": 0.0,
        "Inclination(deg)": 53.0,
        "Latitude(deg)": 53.118106976091084,
        "Longitude(deg)": -51.1483387194099,
        "Mean Anomaly(deg)": -268.3505668656688,
        "RAAN(deg)": 319.95123561271754,
        "Satellite Name": "Starlink Shell 1 1410",
        "Satellite Number": 1410,
        "Semi-Major Axis(m)": 6931778.249405717,
        "Time(s)": 940
    }
]